STARLINK-1318           
1 45416U 20019BJ  21056.51321102 -.00000773  00000-0 -33018-4 0  9999
2 45416  53.0589 108.4896 0001188  85.1262 274.9862 15.06396392 52818
STARLINK-1286           
1 45417U 20019BK  21056.51780452  .00001372  00000-0  11096-3 0  9992
2 45417  53.0570 138.4718 0001128  93.1295 266.9823 15.06400647 52664
STARLINK-1299           
1 45418U 20019BL  21056.53200603  .00002954  00000-0  25614-3 0  9998
2 45418  53.0016 147.3642 0001407 114.1110 246.0022 14.99987603 52286
STARLINK-1308           
1 45419U 20019BM  21056.71316873 -.00000296  00000-0 -95652-6 0  9997
2 45419  53.0592 137.5896 0001162  80.6957 279.4163 15.06394892 52447
STARLINK-1329           
1 45531U 20025A   21056.35010545 -.00000994  00000-0 -47879-4 0  9997
2 45531  53.0584  79.2268 0001623  67.5955 292.5206 15.06393951 48019
STARLINK-1338           
1 45532U 20025B   21056.89194228 -.00000932  00000-0 -43698-4 0  9995
2 45532  53.0586  76.7933 0001453  69.4626 290.6519 15.06390926 48093
STARLINK-1339           
1 45533U 20025C   21056.44594103  .00000727  00000-0  67725-4 0  9990
2 45533  53.0574  78.7964 0001336  72.7208 287.3927 15.06394592 48022
STARLINK-1341           
1 45534U 20025D   21056.43856153  .00000670  00000-0  63850-4 0  9998
2 45534  53.0576  78.8278 0001184  66.0919 294.0194 15.06400335 48024
STARLINK-1350           
1 45535U 20025E   21056.45699857  .00000811  00000-0  73316-4 0  9992
2 45535  53.0568  78.7473 0001293  71.8334 288.2795 15.06392987 48034
STARLINK-1352           
1 45536U 20025F   21056.46067899 -.00001000  00000-0 -48260-4 0  9992
2 45536  53.0588  78.7258 0001493  70.2970 289.8180 15.06396250 48020
STARLINK-1353           
1 45537U 20025G   21056.35307017  .00005634  00000-0  33557-3 0  9997
2 45537  53.0023  68.2969 0002091  26.9049 333.2050 15.12611190 48163
STARLINK-1362           
1 45538U 20025H   21056.35378934 -.00001828  00000-0 -10386-3 0  9992
2 45538  53.0587  79.2015 0001496  65.7216 294.3930 15.06403606 48010
STARLINK-1367           
1 45539U 20025J   21056.37241344  .00000809  00000-0  74680-4 0  9993
2 45539  53.0011  49.1432 0001001  76.7638 283.3462 15.05592201 48426
STARLINK-1368           
1 45540U 20025K   21056.46436202  .00000543  00000-0  55343-4 0  9994
2 45540  53.0593  78.7101 0002215  53.4448 306.6744 15.06401005 48023
STARLINK-1369           
1 45541U 20025L   21056.46805626  .00000561  00000-0  56585-4 0  9994
2 45541  53.0576  78.6980 0001318  54.2991 305.8121 15.06389985 48026
STARLINK-1371           
1 45542U 20025M   21056.43488544 -.00000835  00000-0 -37148-4 0  9998
2 45542  53.0590  78.8432 0001499  75.9874 284.1282 15.06391807 48020
STARLINK-1372           
1 45543U 20025N   21056.33904480  .00000654  00000-0  62808-4 0  9998
2 45543  53.0576  79.2783 0001410  67.7675 292.3464 15.06401356 47102
STARLINK-1373           
1 45544U 20025P   21056.55650605  .00000882  00000-0  78088-4 0  9990
2 45544  53.0581  78.2929 0001370  68.9751 291.1384 15.06402337 48045
STARLINK-1374           
1 45545U 20025Q   21056.44225456  .00001376  00000-0  11129-3 0  9992
2 45545  53.0576  78.8077 0001339  58.0807 302.0312 15.06393415 48002
STARLINK-1375           
1 45546U 20025R   21056.45331923  .00000631  00000-0  61260-4 0  9996
2 45546  53.0595  78.7535 0001372  65.9470 294.1663 15.06389460 48029
STARLINK-1377           
1 45547U 20025S   21056.44963100 -.00000625  00000-0 -23086-4 0  9993
2 45547  53.0573  78.7796 0001462  63.9536 296.1603 15.06392895 48039
STARLINK-1378           
1 45548U 20025T   21056.47541251  .00000687  00000-0  65029-4 0  9995
2 45548  53.0588  78.6646 0001750  57.8219 302.2939 15.06403017 48028
STARLINK-1379           
1 45549U 20025U   21056.87718499  .00000531  00000-0  54508-4 0  9998
2 45549  53.0599  76.8567 0001430  70.3020 289.8123 15.06404866 48082
STARLINK-1390           
1 45550U 20025V   21056.89099733 -.00001006  00000-0 -48678-4 0  9996
2 45550  53.0564  76.7957 0001505  66.4364 293.6783 15.06388065 48085
STARLINK-1294           
1 45551U 20025W   21056.29665786  .00000856  00000-0  76378-4 0  9996
2 45551  53.0599  59.4499 0001189  55.1027 305.0074 15.06392447 48284
STARLINK-1322           
1 45552U 20025X   21056.95644123 -.00001349  00000-0 -71728-4 0  9996
2 45552  53.0576  56.4939 0001130  47.2249 312.8835 15.06394052 48375
STARLINK-1323           
1 45553U 20025Y   21056.77214897 -.00000719  00000-0 -29401-4 0  9999
2 45553  53.0596  57.3197 0001331  69.3725 290.7407 15.06395333 47068
STARLINK-1325           
1 45554U 20025Z   21056.43302770  .00000931  00000-0  81369-4 0  9996
2 45554  53.0600  58.8375 0001100  47.9390 312.1693 15.06400433 48305
STARLINK-1327           
1 45555U 20025AA  21056.39617865 -.00001010  00000-0 -48927-4 0  9990
2 45555  53.0585  59.0020 0000988  78.4817 281.6283 15.06399469 48293
STARLINK-1334           
1 45556U 20025AB  21056.30403071 -.00000863  00000-0 -39080-4 0  9999
2 45556  53.0592  59.4211 0001171  65.0641 295.0469 15.06395156 48283
STARLINK-1336           
1 45557U 20025AC  21056.37774870 -.00000206  00000-0  50409-5 0  9994
2 45557  53.0600  59.0832 0001195  57.2549 302.8555 15.06392434 48295
STARLINK-1342           
1 45558U 20025AD  21056.41091725  .00001321  00000-0  10757-3 0  9999
2 45558  53.0589  58.9380 0001362  45.8233 314.2868 15.06404118 48294
STARLINK-1344           
1 45559U 20025AE  21056.44776731  .00000887  00000-0  78404-4 0  9990
2 45559  53.0585  58.7706 0001016  57.7651 302.3436 15.06404009 48303
STARLINK-1346           
1 45560U 20025AF  21056.23491981 -.00001117  00000-0 -56091-4 0  9997
2 45560  53.0577  49.7362 0001378  60.4583 299.6543 15.06396412 48417
STARLINK-1348           
1 45561U 20025AG  21056.89012747  .00027045  00000-0  68944-3 0  9994
2 45561  52.9978 335.1867 0000774 315.0000  45.0939 15.39360667 49518
STARLINK-1354           
1 45562U 20025AH  21056.78689376  .00000821  00000-0  73993-4 0  9995
2 45562  53.0584  57.2477 0000963  66.2054 293.9036 15.06392290 48351
STARLINK-1355           
1 45563U 20025AJ  21056.40355087 -.00000818  00000-0 -36062-4 0  9998
2 45563  53.0572  58.9740 0001022  75.0375 285.0727 15.06394345 48296
STARLINK-1356           
1 45564U 20025AK  21056.39984832  .00000681  00000-0  64573-4 0  9997
2 45564  53.0590  58.9807 0000676  71.8215 288.2848 15.06408088 48291
STARLINK-1357           
1 45565U 20025AL  21056.39249406  .00000924  00000-0  80917-4 0  9999
2 45565  53.0607  59.0145 0000984  69.4763 290.6332 15.06395920 48296
STARLINK-1358           
1 45566U 20025AM  21056.40723479 -.00001453  00000-0 -78706-4 0  9992
2 45566  53.0576  58.9588 0001364  88.4529 271.6616 15.06397084 48292
STARLINK-1361           
1 45567U 20025AN  21056.48463659 -.00000982  00000-0 -47030-4 0  9994
2 45567  53.0583  58.6043 0001299  53.1993 306.9115 15.06395585 48318
STARLINK-1363           
1 45568U 20025AP  21056.27727905  .00000664  00000-0  63469-4 0  9998
2 45568  53.0609  59.5349 0001226  58.4279 301.6830 15.06399562 48272
STARLINK-1366           
1 45569U 20025AQ  21056.42197962 -.00001149  00000-0 -58272-4 0  9997
2 45569  53.0588  58.8848 0001087  52.3128 307.7959 15.06393576 48296
STARLINK-1376           
1 45570U 20025AR  21056.48095028  .00001112  00000-0  93541-4 0  9991
2 45570  53.0583  58.6206 0001190  48.7327 311.3764 15.06399103 48303
STARLINK-1261           
1 45571U 20025AS  21056.49661136  .00000586  00000-0  58256-4 0  9990
2 45571  53.0587  48.5530 0001293  58.9288 301.1827 15.06402082 48464
STARLINK-1320           
1 45572U 20025AT  21056.95367139  .00000897  00000-0  79087-4 0  9998
2 45572  53.0619  46.4870 0001646  41.4579 318.6535 15.06398872 48524
STARLINK-1321           
1 45573U 20025AU  21056.79886775 -.00000530  00000-0 -16690-4 0  9990
2 45573  53.0567  47.2046 0001651  46.9601 313.1526 15.06394753 48190
STARLINK-1324           
1 45574U 20025AV  21056.49292820  .00000897  00000-0  79098-4 0  9995
2 45574  53.0571  48.5761 0001487  60.0452 300.0685 15.06400478 48465
STARLINK-1326           
1 45575U 20025AW  21056.66627210  .00003111  00000-0  22662-3 0  9996
2 45575  53.0021  47.2734 0001097  80.1405 279.9708 15.06573835 48491
STARLINK-1328           
1 45576U 20025AX  21056.45238946  .00001304  00000-0  10645-3 0  9998
2 45576  53.0606  48.7479 0001315  53.1682 306.9428 15.06394590 48458
STARLINK-1330           
1 45577U 20025AY  21056.67354654 -.00000755  00000-0 -31832-4 0  9991
2 45577  53.0579  47.7607 0001401  53.5956 306.5162 15.06395303 48470
STARLINK-1331           
1 45578U 20025AZ  21056.37865803  .00000743  00000-0  68747-4 0  9992
2 45578  53.0603  49.0812 0001454  58.0743 302.0387 15.06406225 48447
STARLINK-1332           
1 45579U 20025BA  21056.56937777  .00001320  00000-0  10760-3 0  9997
2 45579  53.0675   8.1840 0008799 353.1721   6.9146 15.06404212 48434
STARLINK-1333           
1 45580U 20025BB  21056.38512459 -.00001039  00000-0 -50861-4 0  9991
2 45580  53.0580  59.0533 0000919  55.9843 304.1234 15.06393852 48295
STARLINK-1335           
1 45581U 20025BC  21056.45607490 -.00001104  00000-0 -55230-4 0  9998
2 45581  53.0590  48.7449 0001460  51.5973 308.5147 15.06397058 48446
STARLINK-1337           
1 45582U 20025BD  21056.94261839  .00001093  00000-0  92250-4 0  9994
2 45582  53.0583  46.5547 0001457  60.5643 299.5491 15.06398007 48518
STARLINK-1340           
1 45583U 20025BE  21056.65879770 -.00000939  00000-0 -44112-4 0  9996
2 45583  53.0587  47.8318 0001791  61.9865 298.1305 15.06395925 48475
STARLINK-1343           
1 45584U 20025BF  21056.38235079 -.00000445  00000-0 -10968-4 0  9999
2 45584  53.0589  49.0673 0001493  60.7645 299.3494 15.06395757 48439
STARLINK-1345           
1 45585U 20025BG  21056.66248603 -.00001069  00000-0 -52902-4 0  9995
2 45585  53.0576  47.8158 0001449  57.7835 302.3294 15.06395049 48479
STARLINK-1347           
1 45586U 20025BH  21056.51192305 -.00000310  00000-0 -25023-5 0  9990
2 45586  53.1157  48.2852 0002388  27.8628 332.2489 15.03967776 48447
